start=new Date('2022-09-23T00:00:00.000Z').valueOf();
sats=[{"SEMIMAJOR_AXIS":"6727.941","MEAN_ELEMENT_THEORY":"SGP4","EPHEMERIS_TYPE":"0","LAUNCH_DATE":"2022-08-28","CLASSIFICATION_TYPE":"U","RCS_SIZE":"LARGE","TIME_SYSTEM":"UTC","MEAN_MOTION":"15.73183835","REV_AT_EPOCH":"130","INCLINATION":"53.2156","OBJECT_TYPE":"PAYLOAD","ELEMENT_SET_NO":"999","TLE_LINE2":"2 53632  53.2156 160.3429 0001318 109.9379 336.2628 15.73183835  1307","MEAN_MOTION_DDOT":"0.0000000000000","OBJECT_NAME":"STARLINK-4606","BSTAR":"0.00010066000000","ARG_OF_PERICENTER":"109.9379","PERIAPSIS":"348.920","COUNTRY_CODE":"US","NORAD_CAT_ID":"53632","ECCENTRICITY":"0.00013180","FILE":"3580594","GP_ID":"213263325","EPOCH":"2022-09-22T22:00:00.999936","REF_FRAME":"TEME","APOAPSIS":"350.693","RA_OF_ASC_NODE":"160.3429","OBJECT_ID":"2022-104AW","MEAN_MOTION_DOT":"0.00013520","PERIOD":"91.534","DECAY_DATE":null,"MEAN_ANOMALY":"336.2628","CENTER_NAME":"EARTH","TLE_LINE1":"1 53632U 22104AW  22265.91667824  .00013520  00000-0  10066-3 0  9995","SITE":"AFETR"},{"EPOCH":"2022-09-22T22:00:00.999936","GP_ID":"213262236","FILE":"3580594","ECCENTRICITY":"0.00012650","NORAD_CAT_ID":"53633","COUNTRY_CODE":"US","PERIAPSIS":"348.755","ARG_OF_PERICENTER":"120.8530","BSTAR":"-0.00062858000000","SITE":"AFETR","TLE_LINE1":"1 53633U 22104AX  22265.91667824 -.00088121  00000-0 -62858-3 0  9993","CENTER_NAME":"EARTH","MEAN_ANOMALY":"324.7774","DECAY_DATE":null,"PERIOD":"91.530","OBJECT_ID":"2022-104AX","MEAN_MOTION_DOT":"-0.00088121","RA_OF_ASC_NODE":"160.3433","APOAPSIS":"350.457","REF_FRAME":"TEME","RCS_SIZE":"LARGE","CLASSIFICATION_TYPE":"U","LAUNCH_DATE":"2022-08-28","EPHEMERIS_TYPE":"0","MEAN_ELEMENT_THEORY":"SGP4","SEMIMAJOR_AXIS":"6727.741","MEAN_MOTION_DDOT":"0.0000000000000","TLE_LINE2":"2 53633  53.2152 160.3433 0001265 120.8530 324.7774 15.73254059  1302","OBJECT_NAME":"STARLINK-4593","ELEMENT_SET_NO":"999","OBJECT_TYPE":"PAYLOAD","INCLINATION":"53.2152","REV_AT_EPOCH":"130","MEAN_MOTION":"15.73254059","TIME_SYSTEM":"UTC"},{"MEAN_MOTION_DOT":"0.00009071","OBJECT_ID":"2022-104AY","RA_OF_ASC_NODE":"160.3389","APOAPSIS":"350.736","REF_FRAME":"TEME","SITE":"AFETR","TLE_LINE1":"1 53634U 22104AY  22265.91667824  .00009071  00000-0  69060-4 0  9992","CENTER_NAME":"EARTH","MEAN_ANOMALY":"340.0260","DECAY_DATE":null,"PERIOD":"91.535","COUNTRY_CODE":"US","PERIAPSIS":"348.939","ARG_OF_PERICENTER":"107.3244","BSTAR":"0.00006906000000","EPOCH":"2022-09-22T22:00:00.999936","GP_ID":"213262966","FILE":"3580594","ECCENTRICITY":"0.00013350","NORAD_CAT_ID":"53634","MEAN_MOTION":"15.73172837","TIME_SYSTEM":"UTC","OBJECT_NAME":"STARLINK-4592","TLE_LINE2":"2 53634  53.2149 160.3389 0001335 107.3244 340.0260 15.73172837  1303","MEAN_MOTION_DDOT":"0.0000000000000","ELEMENT_SET_NO":"999","OBJECT_TYPE":"PAYLOAD","REV_AT_EPOCH":"130","INCLINATION":"53.2149","EPHEMERIS_TYPE":"0","MEAN_ELEMENT_THEORY":"SGP4","SEMIMAJOR_AXIS":"6727.973","RCS_SIZE":"LARGE","CLASSIFICATION_TYPE":"U","LAUNCH_DATE":"2022-08-28"},{"EPOCH":"2022-09-22T22:00:00.999936","GP_ID":"213262801","FILE":"3580594","NORAD_CAT_ID":"53635","ECCENTRICITY":"0.00015530","PERIAPSIS":"348.751","COUNTRY_CODE":"US","ARG_OF_PERICENTER":"109.8322","BSTAR":"0.00011011000000","SITE":"AFETR","TLE_LINE1":"1 53635U 22104AZ  22265.91667824  .00014852  00000-0  11011-3 0  9998","PERIOD":"91.534","DECAY_DATE":null,"MEAN_ANOMALY":"336.9663","CENTER_NAME":"EARTH","MEAN_MOTION_DOT":"0.00014852","OBJECT_ID":"2022-104AZ","RA_OF_ASC_NODE":"160.3379","REF_FRAME":"TEME","APOAPSIS":"350.841","LAUNCH_DATE":"2022-08-28","CLASSIFICATION_TYPE":"U","RCS_SIZE":"LARGE","EPHEMERIS_TYPE":"0","SEMIMAJOR_AXIS":"6727.931","MEAN_ELEMENT_THEORY":"SGP4","OBJECT_NAME":"STARLINK-4587","TLE_LINE2":"2 53635  53.2147 160.3379 0001553 109.8322 336.9663 15.73187389  1306","MEAN_MOTION_DDOT":"0.0000000000000","OBJECT_TYPE":"PAYLOAD","ELEMENT_SET_NO":"999","REV_AT_EPOCH":"130","INCLINATION":"53.2147","TIME_SYSTEM":"UTC","MEAN_MOTION":"15.73187389"},{"RA_OF_ASC_NODE":"160.3378","OBJECT_ID":"2022-104BA","MEAN_MOTION_DOT":"-0.00084811","REF_FRAME":"TEME","APOAPSIS":"350.537","TLE_LINE1":"1 53636U 22104BA  22265.91667824 -.00084811  00000-0 -60511-3 0  9992","SITE":"AFETR","DECAY_DATE":null,"PERIOD":"91.531","CENTER_NAME":"EARTH","MEAN_ANOMALY":"344.8858","ARG_OF_PERICENTER":"103.6615","PERIAPSIS":"348.796","COUNTRY_CODE":"US","BSTAR":"-0.00060511000000","EPOCH":"2022-09-22T22:00:00.999936","GP_ID":"213263123","NORAD_CAT_ID":"53636","ECCENTRICITY":"0.00012940","FILE":"3580594","TIME_SYSTEM":"UTC","MEAN_MOTION":"15.73232865","TLE_LINE2":"2 53636  53.2151 160.3378 0001294 103.6615 344.8858 15.73232865  1304","OBJECT_NAME":"STARLINK-4586","MEAN_MOTION_DDOT":"0.0000000000000","INCLINATION":"53.2151","REV_AT_EPOCH":"130","OBJECT_TYPE":"PAYLOAD","ELEMENT_SET_NO":"999","SEMIMAJOR_AXIS":"6727.801","MEAN_ELEMENT_THEORY":"SGP4","EPHEMERIS_TYPE":"0","LAUNCH_DATE":"2022-08-28","CLASSIFICATION_TYPE":"U","RCS_SIZE":"LARGE"},{"CENTER_NAME":"EARTH","MEAN_ANOMALY":"338.1400","PERIOD":"91.532","DECAY_DATE":null,"TLE_LINE1":"1 53637U 22104BB  22265.91667824 -.00027027  00000-0 -18860-3 0  9999","SITE":"AFETR","APOAPSIS":"350.625","REF_FRAME":"TEME","RA_OF_ASC_NODE":"160.3399","MEAN_MOTION_DOT":"-0.00027027","OBJECT_ID":"2022-104BB","ECCENTRICITY":"0.00013720","NORAD_CAT_ID":"53637","FILE":"3580594","GP_ID":"213262645","EPOCH":"2022-09-22T22:00:00.999936","BSTAR":"-0.00018860000000","ARG_OF_PERICENTER":"109.8110","COUNTRY_CODE":"US","PERIAPSIS":"348.779","INCLINATION":"53.2153","REV_AT_EPOCH":"130","ELEMENT_SET_NO":"999","OBJECT_TYPE":"PAYLOAD","MEAN_MOTION_DDOT":"0.0000000000000","TLE_LINE2":"2 53637  53.2153 160.3399 0001372 109.8110 338.1400 15.73220379  1301","OBJECT_NAME":"STARLINK-4396","MEAN_MOTION":"15.73220379","TIME_SYSTEM":"UTC","RCS_SIZE":"LARGE","CLASSIFICATION_TYPE":"U","LAUNCH_DATE":"2022-08-28","MEAN_ELEMENT_THEORY":"SGP4","SEMIMAJOR_AXIS":"6727.837","EPHEMERIS_TYPE":"0"},{"TIME_SYSTEM":"UTC","MEAN_MOTION":"15.73244342","TLE_LINE2":"2 53638  53.2149 160.3352 0001006 126.3374 323.3942 15.73244342  1309","OBJECT_NAME":"STARLINK-4594","MEAN_MOTION_DDOT":"0.0000000000000","OBJECT_TYPE":"PAYLOAD","ELEMENT_SET_NO":"999","REV_AT_EPOCH":"130","INCLINATION":"53.2149","EPHEMERIS_TYPE":"0","SEMIMAJOR_AXIS":"6727.769","MEAN_ELEMENT_THEORY":"SGP4","LAUNCH_DATE":"2022-08-28","CLASSIFICATION_TYPE":"U","RCS_SIZE":"LARGE","MEAN_MOTION_DOT":"-0.00095437","OBJECT_ID":"2022-104BC","RA_OF_ASC_NODE":"160.3352","REF_FRAME":"TEME","APOAPSIS":"350.311","SITE":"AFETR","TLE_LINE1":"1 53638U 22104BC  22265.91667824 -.00095437  00000-0 -68203-3 0  9996","PERIOD":"91.531","DECAY_DATE":null,"MEAN_ANOMALY":"323.3942","CENTER_NAME":"EARTH","PERIAPSIS":"348.957","COUNTRY_CODE":"US","ARG_OF_PERICENTER":"126.3374","BSTAR":"-0.00068203000000","GP_ID":"213263169","EPOCH":"2022-09-22T22:00:00.999936","FILE":"3580594","NORAD_CAT_ID":"53638","ECCENTRICITY":"0.00010060"},{"EPHEMERIS_TYPE":"0","SEMIMAJOR_AXIS":"6727.951","MEAN_ELEMENT_THEORY":"SGP4","LAUNCH_DATE":"2022-08-28","RCS_SIZE":"LARGE","CLASSIFICATION_TYPE":"U","TIME_SYSTEM":"UTC","MEAN_MOTION":"15.73180510","TLE_LINE2":"2 53639  53.2153 160.3372 0001187 117.2826 331.8741 15.73180510  1305","MEAN_MOTION_DDOT":"0.0000000000000","OBJECT_NAME":"STARLINK-4422","OBJECT_TYPE":"PAYLOAD","ELEMENT_SET_NO":"999","INCLINATION":"53.2153","REV_AT_EPOCH":"130","PERIAPSIS":"349.017","COUNTRY_CODE":"US","ARG_OF_PERICENTER":"117.2826","BSTAR":"-0.00007358200000","GP_ID":"213262394","EPOCH":"2022-09-22T22:00:00.999936","FILE":"3580594","NORAD_CAT_ID":"53639","ECCENTRICITY":"0.00011870","MEAN_MOTION_DOT":"-0.00010924","OBJECT_ID":"2022-104BD","RA_OF_ASC_NODE":"160.3372","REF_FRAME":"TEME","APOAPSIS":"350.614","SITE":"AFETR","TLE_LINE1":"1 53639U 22104BD  22265.91667824 -.00010924  00000-0 -73582-4 0  9992","PERIOD":"91.534","DECAY_DATE":null,"CENTER_NAME":"EARTH","MEAN_ANOMALY":"331.8741"},{"RCS_SIZE":"LARGE","CLASSIFICATION_TYPE":"U","LAUNCH_DATE":"2022-08-28","EPHEMERIS_TYPE":"0","MEAN_ELEMENT_THEORY":"SGP4","SEMIMAJOR_AXIS":"6727.954","MEAN_MOTION_DDOT":"0.0000000000000","TLE_LINE2":"2 53640  53.2148 160.3327 0001292 126.8985 323.5050 15.73179302  1308","OBJECT_NAME":"STARLINK-4597","ELEMENT_SET_NO":"999","OBJECT_TYPE":"PAYLOAD","INCLINATION":"53.2148","REV_AT_EPOCH":"130","MEAN_MOTION":"15.73179302","TIME_SYSTEM":"UTC","EPOCH":"2022-09-22T22:00:00.999936","GP_ID":"213263326","FILE":"3580594","ECCENTRICITY":"0.00012920","NORAD_CAT_ID":"53640","COUNTRY_CODE":"US","PERIAPSIS":"348.950","ARG_OF_PERICENTER":"126.8985","BSTAR":"-0.00002427300000","SITE":"AFETR","TLE_LINE1":"1 53640U 22104BE  22265.91667824 -.00004022  00000-0 -24273-4 0  9999","MEAN_ANOMALY":"323.5050","CENTER_NAME":"EARTH","DECAY_DATE":null,"PERIOD":"91.534","MEAN_MOTION_DOT":"-0.00004022","OBJECT_ID":"2022-104BE","RA_OF_ASC_NODE":"160.3327","APOAPSIS":"350.688","REF_FRAME":"TEME"},{"MEAN_MOTION":"15.73173227","TIME_SYSTEM":"UTC","OBJECT_NAME":"STARLINK-4588","TLE_LINE2":"2 53641  53.2152 160.3337 0001561 111.7955 339.1262 15.73173227  1302","MEAN_MOTION_DDOT":"0.0000000000000","REV_AT_EPOCH":"130","INCLINATION":"53.2152","ELEMENT_SET_NO":"999","OBJECT_TYPE":"PAYLOAD","MEAN_ELEMENT_THEORY":"SGP4","SEMIMAJOR_AXIS":"6727.972","EPHEMERIS_TYPE":"0","RCS_SIZE":"LARGE","CLASSIFICATION_TYPE":"U","LAUNCH_DATE":"2022-08-28","RA_OF_ASC_NODE":"160.3337","OBJECT_ID":"2022-104BF","MEAN_MOTION_DOT":"0.00001765","APOAPSIS":"350.887","REF_FRAME":"TEME","TLE_LINE1":"1 53641U 22104BF  22265.91667824  .00001765  00000-0  17011-4 0  9991","SITE":"AFETR","CENTER_NAME":"EARTH","MEAN_ANOMALY":"339.1262","PERIOD":"91.535","DECAY_DATE":null,"ARG_OF_PERICENTER":"111.7955","COUNTRY_CODE":"US","PERIAPSIS":"348.786","BSTAR":"0.00001701100000","GP_ID":"213262237","EPOCH":"2022-09-22T22:00:00.999936","ECCENTRICITY":"0.00015610","NORAD_CAT_ID":"53641","FILE":"3580594"}];
